IRIDE FM8               
1 66702U 25276AN  26068.75007836  .00007869  00000+0  38075-3 0  9996
2 66702  97.4262 143.9879 0004132  23.1376 337.0044 15.18849115 15321
FLOCK 4H-20             
1 66723U 25276BK  26068.75326618  .00008967  00000+0  42185-3 0  9998
2 66723  97.4281 144.1685 0001417 295.7950  64.3138 15.19789930 14581
